{"fetched_at":"2026-07-18T17:29:31.619Z","source":"https://celestrak.org/NORAD/elements/gp.php?GROUP=oneweb&FORMAT=JSON","constellation":"oneweb","records":[{"OBJECT_NAME":"ONEWEB-0229","OBJECT_ID":"2021-045N","EPOCH":"2026-07-18T04:03:39.057984","CLASSIFICATION_TYPE":"U","MEAN_MOTION":13.15548808,"ECCENTRICITY":0.00019995,"INCLINATION":87.8989,"RA_OF_ASC_NODE":253.0192,"ARG_OF_PERICENTER":99.7576,"MEAN_ANOMALY":260.3781,"EPHEMERIS_TYPE":0,"NORAD_CAT_ID":48779,"ELEMENT_SET_NO":999,"REV_AT_EPOCH":24848,"BSTAR":-0.00007192322,"MEAN_MOTION_DOT":-1.4e-7,"MEAN_MOTION_DDOT":0},{"OBJECT_NAME":"ONEWEB-0228","OBJECT_ID":"2021-045P","EPOCH":"2026-07-18T03:02:13.977888","CLASSIFICATION_TYPE":"U","MEAN_MOTION":13.15549636,"ECCENTRICITY":0.00020781,"INCLINATION":87.899,"RA_OF_ASC_NODE":253.0221,"ARG_OF_PERICENTER":99.6327,"MEAN_ANOMALY":260.5039,"EPHEMERIS_TYPE":0,"NORAD_CAT_ID":48780,"ELEMENT_SET_NO":999,"REV_AT_EPOCH":24839,"BSTAR":0.00031329711,"MEAN_MOTION_DOT":0.00000131,"MEAN_MOTION_DDOT":0},{"OBJECT_NAME":"ONEWEB-0232","OBJECT_ID":"2021-045Q","EPOCH":"2026-07-18T04:15:03.987936","CLASSIFICATION_TYPE":"U","MEAN_MOTION":13.15547242,"ECCENTRICITY":0.00022393,"INCLINATION":87.8995,"RA_OF_ASC_NODE":253.0123,"ARG_OF_PERICENTER":97.1165,"MEAN_ANOMALY":263.022,"EPHEMERIS_TYPE":0,"NORAD_CAT_ID":48781,"ELEMENT_SET_NO":999,"REV_AT_EPOCH":24872,"BSTAR":-0.00039295738,"MEAN_MOTION_DOT":-0.00000135,"MEAN_MOTION_DDOT":0},{"OBJECT_NAME":"ONEWEB-0231","OBJECT_ID":"2021-045R","EPOCH":"2026-07-18T03:43:07.018176","CLASSIFICATION_TYPE":"U","MEAN_MOTION":13.15546597,"ECCENTRICITY":0.0002349,"INCLINATION":87.9007,"RA_OF_ASC_NODE":253.0297,"ARG_OF_PERICENTER":107.5117,"MEAN_ANOMALY":252.627,"EPHEMERIS_TYPE":0,"NORAD_CAT_ID":48782,"ELEMENT_SET_NO":999,"REV_AT_EPOCH":24841,"BSTAR":0.0016338087,"MEAN_MOTION_DOT":0.00000628,"MEAN_MOTION_DDOT":0},{"OBJECT_NAME":"ONEWEB-0234","OBJECT_ID":"2021-045S","EPOCH":"2026-07-18T02:48:09.619200","CLASSIFICATION_TYPE":"U","MEAN_MOTION":13.15547693,"ECCENTRICITY":0.00027005,"INCLINATION":87.8992,"RA_OF_ASC_NODE":253.018,"ARG_OF_PERICENTER":83.8342,"MEAN_ANOMALY":276.3095,"EPHEMERIS_TYPE":0,"NORAD_CAT_ID":48783,"ELEMENT_SET_NO":999,"REV_AT_EPOCH":24854,"BSTAR":0.000080842904,"MEAN_MOTION_DOT":4.3e-7,"MEAN_MOTION_DDOT":0},{"OBJECT_NAME":"ONEWEB-0238","OBJECT_ID":"2021-045T","EPOCH":"2026-07-18T02:48:31.772160","CLASSIFICATION_TYPE":"U","MEAN_MOTION":13.15548749,"ECCENTRICITY":0.00023694,"INCLINATION":87.8991,"RA_OF_ASC_NODE":253.0144,"ARG_OF_PERICENTER":89.7282,"MEAN_ANOMALY":270.412,"EPHEMERIS_TYPE":0,"NORAD_CAT_ID":48784,"ELEMENT_SET_NO":999,"REV_AT_EPOCH":24844,"BSTAR":-0.000078775579,"MEAN_MOTION_DOT":-1.7e-7,"MEAN_MOTION_DDOT":0},{"OBJECT_NAME":"ONEWEB-0240","OBJECT_ID":"2021-045U","EPOCH":"2026-07-18T03:19:08.737248","CLASSIFICATION_TYPE":"U","MEAN_MOTION":13.15549673,"ECCENTRICITY":0.00023736,"INCLINATION":87.8993,"RA_OF_ASC_NODE":253.0195,"ARG_OF_PERICENTER":101.2148,"MEAN_ANOMALY":258.925,"EPHEMERIS_TYPE":0,"NORAD_CAT_ID":48785,"ELEMENT_SET_NO":999,"REV_AT_EPOCH":24847,"BSTAR":0.00051198829,"MEAN_MOTION_DOT":0.00000206,"MEAN_MOTION_DDOT":0},{"OBJECT_NAME":"ONEWEB-0246","OBJECT_ID":"2021-045V","EPOCH":"2026-07-18T03:11:10.387104","CLASSIFICATION_TYPE":"U","MEAN_MOTION":13.15548056,"ECCENTRICITY":0.00020173,"INCLINATION":87.8988,"RA_OF_ASC_NODE":253.0248,"ARG_OF_PERICENTER":101.9463,"MEAN_ANOMALY":258.1894,"EPHEMERIS_TYPE":0,"NORAD_CAT_ID":48786,"ELEMENT_SET_NO":999,"REV_AT_EPOCH":24834,"BSTAR":0.00027016044,"MEAN_MOTION_DOT":0.00000115,"MEAN_MOTION_DDOT":0},{"OBJECT_NAME":"ONEWEB-0210","OBJECT_ID":"2021-045W","EPOCH":"2026-07-18T04:24:11.160864","CLASSIFICATION_TYPE":"U","MEAN_MOTION":13.15547842,"ECCENTRICITY":0.00019423,"INCLINATION":87.8991,"RA_OF_ASC_NODE":253.0115,"ARG_OF_PERICENTER":121.3588,"MEAN_ANOMALY":238.7732,"EPHEMERIS_TYPE":0,"NORAD_CAT_ID":48787,"ELEMENT_SET_NO":999,"REV_AT_EPOCH":24839,"BSTAR":-0.00034094435,"MEAN_MOTION_DOT":-0.00000116,"MEAN_MOTION_DDOT":0},{"OBJECT_NAME":"ONEWEB-0214","OBJECT_ID":"2021-045X","EPOCH":"2026-07-18T04:36:43.403328","CLASSIFICATION_TYPE":"U","MEAN_MOTION":13.15547107,"ECCENTRICITY":0.0001754,"INCLINATION":87.8987,"RA_OF_ASC_NODE":253.0066,"ARG_OF_PERICENTER":102.0877,"MEAN_ANOMALY":258.045,"EPHEMERIS_TYPE":0,"NORAD_CAT_ID":48788,"ELEMENT_SET_NO":999,"REV_AT_EPOCH":24836,"BSTAR":0.00013446965,"MEAN_MOTION_DOT":6.3e-7,"MEAN_MOTION_DDOT":0},{"OBJECT_NAME":"ONEWEB-0221","OBJECT_ID":"2021-045Y","EPOCH":"2026-07-18T02:57:29.191392","CLASSIFICATION_TYPE":"U","MEAN_MOTION":13.15548402,"ECCENTRICITY":0.0002188,"INCLINATION":87.8987,"RA_OF_ASC_NODE":253.0291,"ARG_OF_PERICENTER":101.5721,"MEAN_ANOMALY":258.5655,"EPHEMERIS_TYPE":0,"NORAD_CAT_ID":48789,"ELEMENT_SET_NO":999,"REV_AT_EPOCH":24844,"BSTAR":0.00025660257,"MEAN_MOTION_DOT":0.00000109,"MEAN_MOTION_DDOT":0},{"OBJECT_NAME":"ONEWEB-0213","OBJECT_ID":"2021-045Z","EPOCH":"2026-07-18T04:31:01.854624","CLASSIFICATION_TYPE":"U","MEAN_MOTION":13.15548803,"ECCENTRICITY":0.00021183,"INCLINATION":87.8987,"RA_OF_ASC_NODE":253.0189,"ARG_OF_PERICENTER":105.3878,"MEAN_ANOMALY":254.7486,"EPHEMERIS_TYPE":0,"NORAD_CAT_ID":48790,"ELEMENT_SET_NO":999,"REV_AT_EPOCH":24851,"BSTAR":-0.000097820118,"MEAN_MOTION_DOT":-2.4e-7,"MEAN_MOTION_DDOT":0},{"OBJECT_NAME":"ONEWEB-0212","OBJECT_ID":"2021-045AA","EPOCH":"2026-07-18T03:57:56.094912","CLASSIFICATION_TYPE":"U","MEAN_MOTION":13.15547608,"ECCENTRICITY":0.00021023,"INCLINATION":87.8991,"RA_OF_ASC_NODE":253.0179,"ARG_OF_PERICENTER":96.456,"MEAN_ANOMALY":263.681,"EPHEMERIS_TYPE":0,"NORAD_CAT_ID":48791,"ELEMENT_SET_NO":999,"REV_AT_EPOCH":24850,"BSTAR":0.00011924022,"MEAN_MOTION_DOT":5.8e-7,"MEAN_MOTION_DDOT":0},{"OBJECT_NAME":"ONEWEB-0227","OBJECT_ID":"2021-045AB","EPOCH":"2026-07-18T03:56:48.350400","CLASSIFICATION_TYPE":"U","MEAN_MOTION":13.15548306,"ECCENTRICITY":0.00021433,"INCLINATION":87.8989,"RA_OF_ASC_NODE":253.0177,"ARG_OF_PERICENTER":99.192,"MEAN_ANOMALY":260.9453,"EPHEMERIS_TYPE":0,"NORAD_CAT_ID":48792,"ELEMENT_SET_NO":999,"REV_AT_EPOCH":24845,"BSTAR":0.000012978396,"MEAN_MOTION_DOT":1.8e-7,"MEAN_MOTION_DDOT":0},{"OBJECT_NAME":"ONEWEB-0226","OBJECT_ID":"2021-045AC","EPOCH":"2026-07-18T03:47:40.741152","CLASSIFICATION_TYPE":"U","MEAN_MOTION":13.155479,"ECCENTRICITY":0.00020158,"INCLINATION":87.8989,"RA_OF_ASC_NODE":253.0238,"ARG_OF_PERICENTER":98.9443,"MEAN_ANOMALY":261.1915,"EPHEMERIS_TYPE":0,"NORAD_CAT_ID":48793,"ELEMENT_SET_NO":999,"REV_AT_EPOCH":24842,"BSTAR":0.00017536975,"MEAN_MOTION_DOT":7.9e-7,"MEAN_MOTION_DDOT":0},{"OBJECT_NAME":"ONEWEB-0224","OBJECT_ID":"2021-045AD","EPOCH":"2026-07-18T02:55:12.216288","CLASSIFICATION_TYPE":"U","MEAN_MOTION":13.15548752,"ECCENTRICITY":0.00029793,"INCLINATION":87.8979,"RA_OF_ASC_NODE":253.0635,"ARG_OF_PERICENTER":95.3413,"MEAN_ANOMALY":264.8057,"EPHEMERIS_TYPE":0,"NORAD_CAT_ID":48794,"ELEMENT_SET_NO":999,"REV_AT_EPOCH":24834,"BSTAR":0.00016479221,"MEAN_MOTION_DOT":7.5e-7,"MEAN_MOTION_DDOT":0}]}
