ONEWEB-0229             
1 48779U 21045N   26199.16920206 -.00000014  00000+0 -71923-4 0  9992
2 48779  87.8989 253.0192 0001999  99.7576 260.3781 13.15548808248485
ONEWEB-0228             
1 48780U 21045P   26199.12655067  .00000131  00000+0  31330-3 0  9995
2 48780  87.8990 253.0221 0002078  99.6327 260.5039 13.15549636248392
ONEWEB-0232             
1 48781U 21045Q   26199.17712949 -.00000135  00000+0 -39296-3 0  9999
2 48781  87.8995 253.0123 0002239  97.1165 263.0220 13.15547242248729
ONEWEB-0231             
1 48782U 21045R   26199.15494234  .00000628  00000+0  16338-2 0  9998
2 48782  87.9007 253.0297 0002349 107.5117 252.6270 13.15546597248419
ONEWEB-0234             
1 48783U 21045S   26199.11677800  .00000043  00000+0  80843-4 0  9992
2 48783  87.8992 253.0180 0002700  83.8342 276.3095 13.15547693248540
ONEWEB-0238             
1 48784U 21045T   26199.11703440 -.00000017  00000+0 -78776-4 0  9998
2 48784  87.8991 253.0144 0002369  89.7282 270.4120 13.15548749248445
ONEWEB-0240             
1 48785U 21045U   26199.13829557  .00000206  00000+0  51199-3 0  9996
2 48785  87.8993 253.0195 0002373 101.2148 258.9250 13.15549673248475
ONEWEB-0246             
1 48786U 21045V   26199.13275911  .00000115  00000+0  27016-3 0  9996
2 48786  87.8988 253.0248 0002017 101.9463 258.1894 13.15548056248347
ONEWEB-0210             
1 48787U 21045W   26199.18346251 -.00000116  00000+0 -34094-3 0  9995
2 48787  87.8991 253.0115 0001942 121.3588 238.7732 13.15547842248397
ONEWEB-0214             
1 48788U 21045X   26199.19216902  .00000063  00000+0  13447-3 0  9994
2 48788  87.8987 253.0066 0001754 102.0877 258.0450 13.15547107248369
ONEWEB-0221             
1 48789U 21045Y   26199.12325453  .00000109  00000+0  25660-3 0  9991
2 48789  87.8987 253.0291 0002188 101.5721 258.5655 13.15548402248444
ONEWEB-0213             
1 48790U 21045Z   26199.18821591 -.00000024  00000+0 -97820-4 0  9999
2 48790  87.8987 253.0189 0002118 105.3878 254.7486 13.15548803248513
ONEWEB-0212             
1 48791U 21045AA  26199.16523258  .00000058  00000+0  11924-3 0  9992
2 48791  87.8991 253.0179 0002102  96.4560 263.6810 13.15547608248500
ONEWEB-0227             
1 48792U 21045AB  26199.16444850  .00000018  00000+0  12978-4 0  9990
2 48792  87.8989 253.0177 0002143  99.1920 260.9453 13.15548306248454
ONEWEB-0226             
1 48793U 21045AC  26199.15811043  .00000079  00000+0  17537-3 0  9994
2 48793  87.8989 253.0238 0002015  98.9443 261.1915 13.15547900248420
ONEWEB-0224             
1 48794U 21045AD  26199.12166917  .00000075  00000+0  16479-3 0  9995
2 48794  87.8979 253.0635 0002979  95.3413 264.8057 13.15548752248342
